[{"OBJECT_NAME":"LUOJIA-1 01","OBJECT_ID":"2018-048B","EPOCH":"2026-03-09T23:50:59.082432","MEAN_MOTION":14.86876409,"ECCENTRICITY":0.00105485,"INCLINATION":97.8151,"RA_OF_ASC_NODE":148.7861,"ARG_OF_PERICENTER":88.6664,"MEAN_ANOMALY":271.576,"EPHEMERIS_TYPE":0,"CLASSIFICATION_TYPE":"U","NORAD_CAT_ID":43485,"ELEMENT_SET_NO":999,"REV_AT_EPOCH":41947,"BSTAR":0.00015202216,"MEAN_MOTION_DOT":1.304e-5,"MEAN_MOTION_DDOT":0},{"OBJECT_NAME":"LEMUR-2-WOBLER","OBJECT_ID":"2026-004F","EPOCH":"2026-03-09T22:20:55.133952","MEAN_MOTION":14.87686378,"ECCENTRICITY":0.00099013,"INCLINATION":97.8047,"RA_OF_ASC_NODE":69.1214,"ARG_OF_PERICENTER":97.2215,"MEAN_ANOMALY":263.0127,"EPHEMERIS_TYPE":0,"CLASSIFICATION_TYPE":"U","NORAD_CAT_ID":67368,"ELEMENT_SET_NO":999,"REV_AT_EPOCH":853,"BSTAR":0.00072761606,"MEAN_MOTION_DOT":6.581e-5,"MEAN_MOTION_DDOT":0}]
